start=new Date('2022-12-21T00:00:00.000Z').valueOf();
sats=[{"GP_ID":"221048501","NORAD_CAT_ID":"52533","LAUNCH_DATE":"2022-05-13","FILE":"3714312","TIME_SYSTEM":"UTC","REF_FRAME":"TEME","MEAN_MOTION":"15.08854568","TLE_LINE2":"2 52533  53.2159   3.6771 0002827  25.7348 334.3785 15.08854568 34131","CENTER_NAME":"EARTH","MEAN_MOTION_DDOT":"0.0000000000000","MEAN_ANOMALY":"334.3785","EPHEMERIS_TYPE":"0","EPOCH":"2022-12-20T17:46:58.963008","MEAN_MOTION_DOT":"0.00005799","BSTAR":"0.00038200000000","RA_OF_ASC_NODE":"3.6771","DECAY_DATE":null,"OBJECT_TYPE":"PAYLOAD","ECCENTRICITY":"0.00028270","ELEMENT_SET_NO":"999","OBJECT_NAME":"STARLINK-3951","CLASSIFICATION_TYPE":"U","INCLINATION":"53.2159","APOAPSIS":"541.657","PERIAPSIS":"537.745","ARG_OF_PERICENTER":"25.7348","SITE":"AFWTR","PERIOD":"95.437","TLE_LINE1":"1 52533U 22051A   22354.74096022  .00005799  00000-0  38200-3 0  9990","COUNTRY_CODE":"US","RCS_SIZE":"LARGE","REV_AT_EPOCH":"3413","OBJECT_ID":"2022-051A","SEMIMAJOR_AXIS":"6917.836","MEAN_ELEMENT_THEORY":"SGP4"},{"REF_FRAME":"TEME","MEAN_MOTION":"15.08856116","NORAD_CAT_ID":"52534","LAUNCH_DATE":"2022-05-13","GP_ID":"221028867","TIME_SYSTEM":"UTC","FILE":"3713130","DECAY_DATE":null,"RA_OF_ASC_NODE":"5.4309","CENTER_NAME":"EARTH","MEAN_MOTION_DDOT":"0.0000000000000","TLE_LINE2":"2 52534  53.2160   5.4309 0002638  29.5851 330.5290 15.08856116 34749","EPHEMERIS_TYPE":"0","MEAN_MOTION_DOT":"0.00006830","EPOCH":"2022-12-20T08:23:52.672416","BSTAR":"0.00044661000000","MEAN_ANOMALY":"330.5290","PERIAPSIS":"537.871","INCLINATION":"53.2160","APOAPSIS":"541.521","ECCENTRICITY":"0.00026380","ELEMENT_SET_NO":"999","OBJECT_NAME":"STARLINK-3952","OBJECT_TYPE":"PAYLOAD","CLASSIFICATION_TYPE":"U","SEMIMAJOR_AXIS":"6917.831","OBJECT_ID":"2022-051B","REV_AT_EPOCH":"3474","MEAN_ELEMENT_THEORY":"SGP4","SITE":"AFWTR","ARG_OF_PERICENTER":"29.5851","COUNTRY_CODE":"US","RCS_SIZE":"LARGE","TLE_LINE1":"1 52534U 22051B   22354.34991519  .00006830  00000-0  44661-3 0  9997","PERIOD":"95.437"},{"FILE":"3714312","TIME_SYSTEM":"UTC","NORAD_CAT_ID":"52535","LAUNCH_DATE":"2022-05-13","GP_ID":"221048355","MEAN_MOTION":"15.08829984","REF_FRAME":"TEME","BSTAR":"-0.00012564000000","MEAN_MOTION_DOT":"-0.00002286","EPOCH":"2022-12-20T17:50:55.059648","EPHEMERIS_TYPE":"0","MEAN_ANOMALY":"333.5936","MEAN_MOTION_DDOT":"0.0000000000000","CENTER_NAME":"EARTH","TLE_LINE2":"2 52535  53.2149   3.6760 0001322  26.5123 333.5936 15.08829984 34132","DECAY_DATE":null,"RA_OF_ASC_NODE":"3.6760","CLASSIFICATION_TYPE":"U","OBJECT_NAME":"STARLINK-3958","ELEMENT_SET_NO":"999","ECCENTRICITY":"0.00013220","OBJECT_TYPE":"PAYLOAD","PERIAPSIS":"538.861","APOAPSIS":"540.691","INCLINATION":"53.2149","RCS_SIZE":"LARGE","COUNTRY_CODE":"US","TLE_LINE1":"1 52535U 22051C   22354.74369282 -.00002286  00000-0 -12564-3 0  9998","PERIOD":"95.438","SITE":"AFWTR","ARG_OF_PERICENTER":"26.5123","MEAN_ELEMENT_THEORY":"SGP4","SEMIMAJOR_AXIS":"6917.911","OBJECT_ID":"2022-051C","REV_AT_EPOCH":"3413"},{"ARG_OF_PERICENTER":"33.3095","SITE":"AFWTR","COUNTRY_CODE":"US","RCS_SIZE":"LARGE","TLE_LINE1":"1 52536U 22051D   22354.74000121  .00003489  00000-0  23719-3 0  9991","PERIOD":"95.437","SEMIMAJOR_AXIS":"6917.868","OBJECT_ID":"2022-051D","REV_AT_EPOCH":"3413","MEAN_ELEMENT_THEORY":"SGP4","ELEMENT_SET_NO":"999","ECCENTRICITY":"0.00028210","OBJECT_NAME":"STARLINK-3964","OBJECT_TYPE":"PAYLOAD","CLASSIFICATION_TYPE":"U","PERIAPSIS":"537.781","INCLINATION":"53.2173","APOAPSIS":"541.684","CENTER_NAME":"EARTH","MEAN_MOTION_DDOT":"0.0000000000000","TLE_LINE2":"2 52536  53.2173   3.6858 0002821  33.3095 326.8074 15.08844167 34135","EPHEMERIS_TYPE":"0","MEAN_MOTION_DOT":"0.00003489","EPOCH":"2022-12-20T17:45:36.104544","BSTAR":"0.00023719000000","MEAN_ANOMALY":"326.8074","DECAY_DATE":null,"RA_OF_ASC_NODE":"3.6858","NORAD_CAT_ID":"52536","LAUNCH_DATE":"2022-05-13","GP_ID":"221048388","TIME_SYSTEM":"UTC","FILE":"3714314","REF_FRAME":"TEME","MEAN_MOTION":"15.08844167"},{"DECAY_DATE":null,"RA_OF_ASC_NODE":"4.8975","CENTER_NAME":"EARTH","MEAN_MOTION_DDOT":"0.0000000000000","TLE_LINE2":"2 52537  53.2163   4.8975 0002754  36.9154 323.2027 15.08843928 34029","EPHEMERIS_TYPE":"0","EPOCH":"2022-12-20T11:18:45.148896","MEAN_MOTION_DOT":"0.00000975","BSTAR":"0.00007935200000","MEAN_ANOMALY":"323.2027","REF_FRAME":"TEME","MEAN_MOTION":"15.08843928","NORAD_CAT_ID":"52537","LAUNCH_DATE":"2022-05-13","GP_ID":"221027615","TIME_SYSTEM":"UTC","FILE":"3713130","SEMIMAJOR_AXIS":"6917.868","REV_AT_EPOCH":"3402","OBJECT_ID":"2022-051E","MEAN_ELEMENT_THEORY":"SGP4","ARG_OF_PERICENTER":"36.9154","SITE":"AFWTR","COUNTRY_CODE":"US","RCS_SIZE":"LARGE","PERIOD":"95.437","TLE_LINE1":"1 52537U 22051E   22354.47135589  .00000975  00000-0  79352-4 0  9991","PERIAPSIS":"537.828","INCLINATION":"53.2163","APOAPSIS":"541.639","ECCENTRICITY":"0.00027540","ELEMENT_SET_NO":"999","OBJECT_NAME":"STARLINK-3897","OBJECT_TYPE":"PAYLOAD","CLASSIFICATION_TYPE":"U"},{"RA_OF_ASC_NODE":"3.7344","DECAY_DATE":null,"TLE_LINE2":"2 52538  53.2179   3.7344 0002539  38.0727 322.0444 15.08854133 34137","MEAN_MOTION_DDOT":"0.0000000000000","CENTER_NAME":"EARTH","MEAN_ANOMALY":"322.0444","EPOCH":"2022-12-20T17:29:41.040672","MEAN_MOTION_DOT":"0.00001795","BSTAR":"0.00013082000000","EPHEMERIS_TYPE":"0","REF_FRAME":"TEME","MEAN_MOTION":"15.08854133","GP_ID":"221048499","NORAD_CAT_ID":"52538","LAUNCH_DATE":"2022-05-13","FILE":"3714312","TIME_SYSTEM":"UTC","OBJECT_ID":"2022-051F","REV_AT_EPOCH":"3413","SEMIMAJOR_AXIS":"6917.837","MEAN_ELEMENT_THEORY":"SGP4","SITE":"AFWTR","ARG_OF_PERICENTER":"38.0727","TLE_LINE1":"1 52538U 22051F   22354.72894723  .00001795  00000-0  13082-3 0  9990","PERIOD":"95.437","RCS_SIZE":"LARGE","COUNTRY_CODE":"US","APOAPSIS":"541.459","INCLINATION":"53.2179","PERIAPSIS":"537.946","OBJECT_TYPE":"PAYLOAD","OBJECT_NAME":"STARLINK-3933","ELEMENT_SET_NO":"999","ECCENTRICITY":"0.00025390","CLASSIFICATION_TYPE":"U"},{"MEAN_ANOMALY":"331.3947","EPOCH":"2022-12-20T17:34:59.892096","MEAN_MOTION_DOT":"0.00000438","BSTAR":"0.00004565800000","EPHEMERIS_TYPE":"0","TLE_LINE2":"2 52539  53.2159   3.7136 0002723  28.7195 331.3947 15.08845136 34139","MEAN_MOTION_DDOT":"0.0000000000000","CENTER_NAME":"EARTH","RA_OF_ASC_NODE":"3.7136","DECAY_DATE":null,"TIME_SYSTEM":"UTC","FILE":"3714312","GP_ID":"221048353","NORAD_CAT_ID":"52539","LAUNCH_DATE":"2022-05-13","MEAN_MOTION":"15.08845136","REF_FRAME":"TEME","PERIOD":"95.437","TLE_LINE1":"1 52539U 22051G   22354.73263764  .00000438  00000-0  45658-4 0  9995","RCS_SIZE":"LARGE","COUNTRY_CODE":"US","SITE":"AFWTR","ARG_OF_PERICENTER":"28.7195","MEAN_ELEMENT_THEORY":"SGP4","REV_AT_EPOCH":"3413","OBJECT_ID":"2022-051G","SEMIMAJOR_AXIS":"6917.865","CLASSIFICATION_TYPE":"U","OBJECT_TYPE":"PAYLOAD","OBJECT_NAME":"STARLINK-3757","ECCENTRICITY":"0.00027230","ELEMENT_SET_NO":"999","APOAPSIS":"541.613","INCLINATION":"53.2159","PERIAPSIS":"537.846"},{"MEAN_ELEMENT_THEORY":"SGP4","REV_AT_EPOCH":"3408","OBJECT_ID":"2022-051H","SEMIMAJOR_AXIS":"6917.832","TLE_LINE1":"1 52540U 22051H   22354.38671677  .00002293  00000-0  16204-3 0  9999","PERIOD":"95.437","COUNTRY_CODE":"US","RCS_SIZE":"LARGE","ARG_OF_PERICENTER":"28.0249","SITE":"AFWTR","INCLINATION":"53.2167","APOAPSIS":"541.546","PERIAPSIS":"537.849","CLASSIFICATION_TYPE":"U","OBJECT_TYPE":"PAYLOAD","ELEMENT_SET_NO":"999","ECCENTRICITY":"0.00026720","OBJECT_NAME":"STARLINK-3940","RA_OF_ASC_NODE":"5.2654","DECAY_DATE":null,"MEAN_ANOMALY":"332.0887","EPHEMERIS_TYPE":"0","MEAN_MOTION_DOT":"0.00002293","BSTAR":"0.00016204000000","EPOCH":"2022-12-20T09:16:52.328928","TLE_LINE2":"2 52540  53.2167   5.2654 0002672  28.0249 332.0887 15.08855796 34086","CENTER_NAME":"EARTH","MEAN_MOTION_DDOT":"0.0000000000000","MEAN_MOTION":"15.08855796","REF_FRAME":"TEME","TIME_SYSTEM":"UTC","FILE":"3714312","GP_ID":"221048497","LAUNCH_DATE":"2022-05-13","NORAD_CAT_ID":"52540"},{"DECAY_DATE":null,"RA_OF_ASC_NODE":"8.6144","EPHEMERIS_TYPE":"0","BSTAR":"0.00016755000000","MEAN_MOTION_DOT":"0.00002379","EPOCH":"2022-12-20T18:03:30.390912","MEAN_ANOMALY":"305.0197","CENTER_NAME":"EARTH","MEAN_MOTION_DDOT":"0.0000000000000","TLE_LINE2":"2 52541  53.2185   8.6144 0002405  55.1021 305.0197 15.08838330 34068","MEAN_MOTION":"15.08838330","REF_FRAME":"TEME","FILE":"3714313","TIME_SYSTEM":"UTC","NORAD_CAT_ID":"52541","LAUNCH_DATE":"2022-05-13","GP_ID":"221048516","MEAN_ELEMENT_THEORY":"SGP4","SEMIMAJOR_AXIS":"6917.885","REV_AT_EPOCH":"3406","OBJECT_ID":"2022-051J","COUNTRY_CODE":"US","RCS_SIZE":"LARGE","PERIOD":"95.438","TLE_LINE1":"1 52541U 22051J   22354.75243508  .00002379  00000-0  16755-3 0  9995","SITE":"AFWTR","ARG_OF_PERICENTER":"55.1021","PERIAPSIS":"538.087","INCLINATION":"53.2185","APOAPSIS":"541.414","CLASSIFICATION_TYPE":"U","ECCENTRICITY":"0.00024050","ELEMENT_SET_NO":"999","OBJECT_NAME":"STARLINK-3845","OBJECT_TYPE":"PAYLOAD"},{"REF_FRAME":"TEME","MEAN_MOTION":"15.08856307","GP_ID":"221028868","NORAD_CAT_ID":"52542","LAUNCH_DATE":"2022-05-13","TIME_SYSTEM":"UTC","FILE":"3713130","RA_OF_ASC_NODE":"4.9913","DECAY_DATE":null,"TLE_LINE2":"2 52542  53.2185   4.9913 0002806  24.3963 335.7161 15.08856307 34021","MEAN_MOTION_DDOT":"0.0000000000000","CENTER_NAME":"EARTH","MEAN_ANOMALY":"335.7161","MEAN_MOTION_DOT":"0.00003996","BSTAR":"0.00026892000000","EPOCH":"2022-12-20T10:46:57.443808","EPHEMERIS_TYPE":"0","APOAPSIS":"541.637","INCLINATION":"53.2185","PERIAPSIS":"537.754","OBJECT_TYPE":"PAYLOAD","OBJECT_NAME":"STARLINK-3937","ELEMENT_SET_NO":"999","ECCENTRICITY":"0.00028060","CLASSIFICATION_TYPE":"U","OBJECT_ID":"2022-051K","REV_AT_EPOCH":"3402","SEMIMAJOR_AXIS":"6917.831","MEAN_ELEMENT_THEORY":"SGP4","ARG_OF_PERICENTER":"24.3963","SITE":"AFWTR","TLE_LINE1":"1 52542U 22051K   22354.44927597  .00003996  00000-0  26892-3 0  9998","PERIOD":"95.437","RCS_SIZE":"LARGE","COUNTRY_CODE":"US"}];
